NORAD_CAT_ID,OBJECT_NAME,OBJECT_TYPE,EPOCH,MEAN_MOTION,ECCENTRICITY,INCLINATION,RA_OF_ASC_NODE,ARG_OF_PERICENTER,MEAN_ANOMALY,BSTAR,MEAN_MOTION_DOT,MEAN_MOTION_DDOT,TLE_LINE0,TLE_LINE1,TLE_LINE2,SEMIMAJOR_AXIS,PERIOD,APOGEE,PERIGEE,DECAYED
55286.0,STARLINK-5338,PAYLOAD,2024-06-15 10:42:08,14.98331194,0.0003295,69.9984,178.6287,269.9502,90.1279,6.9381e-06,-1e-07,0.0,0 STARLINK-5338,1 55286U 23010T   24167.44593289 -.00000010  00000-0  69381-5 0  9990,2 55286  69.9984 178.6287 0003295 269.9502  90.1279 14.98331194 78561,6950.189,96.107,574.344,569.764,0.0
55286.0,STARLINK-5338,PAYLOAD,2024-06-15 18:42:48,14.98331119,0.0003303,69.9985,177.7871,270.159,89.9191,3.6017e-05,3.37e-06,0.0,0 STARLINK-5338,1 55286U 23010T   24167.77973191  .00000337  00000-0  36017-4 0  9990,2 55286  69.9985 177.7871 0003303 270.1590  89.9191 14.98331119 78614,6950.189,96.107,574.35,569.759,0.0
55286.0,STARLINK-5338,PAYLOAD,2024-06-16 10:44:09,14.98332513,0.000328,69.9984,176.1037,269.6354,90.4429,7.3768e-05,7.87e-06,0.0,0 STARLINK-5338,1 55286U 23010T   24168.44732922  .00000787  00000-0  73768-4 0  9993,2 55286  69.9984 176.1037 0003280 269.6354  90.4429 14.98332513 78716,6950.185,96.107,574.33,569.77,0.0
55286.0,STARLINK-5338,PAYLOAD,2024-06-17 17:10:42,14.98331206,0.0003206,69.9985,172.9055,270.1239,89.9553,-1.0456e-05,-2.18e-06,0.0,0 STARLINK-5338,1 55286U 23010T   24169.71577068 -.00000218  00000-0 -10456-4 0  9998,2 55286  69.9985 172.9055 0003206 270.1239  89.9553 14.98331206 78593,6950.189,96.107,574.282,569.826,0.0
55286.0,STARLINK-5338,PAYLOAD,2024-06-18 09:12:03,14.98330795,0.0003174,69.9985,171.2224,269.4797,90.5998,-3.9055e-05,-5.59e-06,0.0,0 STARLINK-5338,1 55286U 23010T   24170.38337103 -.00000559  00000-0 -39055-4 0  9991,2 55286  69.9985 171.2224 0003174 269.4797  90.5998 14.98330795 79007,6950.19,96.107,574.261,569.849,0.0
55286.0,STARLINK-5338,PAYLOAD,2024-06-18 17:12:43,14.98330278,0.0003171,69.9986,170.3807,269.4529,90.6267,-2.0315e-05,-3.35e-06,0.0,0 STARLINK-5338,1 55286U 23010T   24170.71717054 -.00000335  00000-0 -20315-4 0  9996,2 55286  69.9986 170.3807 0003171 269.4529  90.6267 14.98330278 78741,6950.192,96.107,574.261,569.853,0.0
55286.0,STARLINK-5338,PAYLOAD,2024-06-19 10:50:12,14.98329412,0.0003179,69.9986,168.5292,268.8172,91.2623,-8.0984e-07,-1.03e-06,0.0,0 STARLINK-5338,1 55286U 23010T   24171.45153017 -.00000103  00000-0 -80984-6 0  9994,2 55286  69.9986 168.5292 0003179 268.8172  91.2623 14.98329412 79161,6950.195,96.107,574.269,569.85,0.0
55286.0,STARLINK-5338,PAYLOAD,2024-06-19 17:14:44,14.98329137,0.0003212,69.9985,167.8559,269.6113,90.4678,-4.0713e-06,-1.42e-06,0.0,0 STARLINK-5338,1 55286U 23010T   24171.71857034 -.00000142  00000-0 -40713-5 0  9991,2 55286  69.9985 167.8559 0003212 269.6113  90.4678 14.98329137 78894,6950.196,96.107,574.293,569.828,0.0
55286.0,STARLINK-5338,PAYLOAD,2024-06-20 09:16:05,14.98328353,0.0003229,69.9985,166.1727,269.5238,90.5551,1.2882e-05,6.1e-07,0.0,0 STARLINK-5338,1 55286U 23010T   24172.38617076  .00000061  00000-0  12882-4 0  9998,2 55286  69.9985 166.1727 0003229 269.5238  90.5551 14.98328353 79305,6950.198,96.107,574.307,569.819,0.0
55286.0,STARLINK-5338,PAYLOAD,2024-06-20 17:16:45,14.98330074,0.0003236,69.9986,165.3311,269.505,90.5738,1.7887e-05,1.2e-06,0.0,0 STARLINK-5338,1 55286U 23010T   24172.71996952  .00000120  00000-0  17887-4 0  9994,2 55286  69.9986 165.3311 0003236 269.5050  90.5738 14.98330074 79351,6950.193,96.107,574.307,569.809,0.0
55286.0,STARLINK-5338,PAYLOAD,2024-06-20 23:41:17,14.98331631,0.0003252,69.9985,164.6577,269.5127,90.5659,3.4798e-05,3.22e-06,0.0,0 STARLINK-5338,1 55286U 23010T   24172.98700774  .00000322  00000-0  34798-4 0  9992,2 55286  69.9985 164.6577 0003252 269.5127  90.5659 14.98331631 79081,6950.188,96.107,574.313,569.793,0.0
55286.0,STARLINK-5338,PAYLOAD,2024-06-21 09:18:05,14.98333516,0.0003261,69.9986,163.6479,269.6532,90.4254,4.184e-05,4.06e-06,0.0,0 STARLINK-5338,1 55286U 23010T   24173.38756567  .00000406  00000-0  41840-4 0  9997,2 55286  69.9986 163.6479 0003261 269.6532  90.4254 14.98333516 79458,6950.182,96.107,574.313,569.781,0.0
55286.0,STARLINK-5338,PAYLOAD,2024-06-22 04:31:42,14.98326528,0.0003234,69.9988,161.628,269.4526,90.6262,-2.0097e-05,-3.33e-06,0.0,0 STARLINK-5338,1 55286U 23010T   24174.18869167 -.00000333  00000-0 -20097-4 0  9999,2 55286  69.9988 161.6280 0003234 269.4526  90.6262 14.98326528 79264,6950.204,96.107,574.316,569.821,0.0
55286.0,STARLINK-5338,PAYLOAD,2024-06-22 09:20:07,14.98327486,0.0003228,69.9989,161.123,269.4553,90.6236,-1.4161e-05,-2.62e-06,0.0,0 STARLINK-5338,1 55286U 23010T   24174.38897117 -.00000262  00000-0 -14161-4 0  9993,2 55286  69.9989 161.1230 0003228 269.4553  90.6236 14.98327486 79601,6950.201,96.107,574.309,569.822,0.0
55286.0,STARLINK-5338,PAYLOAD,2024-06-23 09:22:07,14.98333327,0.0003172,69.9992,158.5985,270.271,89.8086,4.6697e-06,-3.7e-07,0.0,0 STARLINK-5338,1 55286U 23010T   24175.39036660 -.00000037  00000-0  46697-5 0  9992,2 55286  69.9992 158.5985 0003172 270.2710  89.8086 14.98333327 79441,6950.183,96.107,574.252,569.843,0.0
55286.0,STARLINK-5338,PAYLOAD,2024-06-24 09:24:08,14.983284,0.000307,69.9993,156.0739,265.4405,94.6404,4.2741e-05,4.17e-06,0.0,0 STARLINK-5338,1 55286U 23010T   24176.39176851  .00000417  00000-0  42741-4 0  9996,2 55286  69.9993 156.0739 0003070 265.4405  94.6404 14.98328400 79596,6950.198,96.107,574.197,569.929,0.0
55286.0,STARLINK-5338,PAYLOAD,2024-06-25 07:50:01,14.98332213,0.0002975,69.9995,153.7175,264.3556,95.7264,1.7982e-05,1.22e-06,0.0,0 STARLINK-5338,1 55286U 23010T   24177.32640616  .00000122  00000-0  17982-4 0  9997,2 55286  69.9995 153.7175 0002975 264.3556  95.7264 14.98332213 80049,6950.186,96.107,574.119,569.983,0.0
55286.0,STARLINK-5338,PAYLOAD,2024-06-26 04:39:46,14.98328303,0.0003,69.9993,151.5289,269.1232,90.9583,-4.3815e-06,-1.45e-06,0.0,0 STARLINK-5338,1 55286U 23010T   24178.19428927 -.00000145  00000-0 -43815-5 0  9994,2 55286  69.9993 151.5289 0003000 269.1232  90.9583 14.98328303 79867,6950.198,96.107,574.148,569.978,0.0
55286.0,STARLINK-5338,PAYLOAD,2024-06-26 07:52:02,14.98329261,0.0002976,69.9994,151.1924,269.4628,90.619,8.2175e-06,5e-08,0.0,0 STARLINK-5338,1 55286U 23010T   24178.32780841  .00000005  00000-0  82175-5 0  9990,2 55286  69.9994 151.1924 0002976 269.4628  90.6190 14.98329261 80196,6950.195,96.107,574.129,569.992,0.0
55286.0,STARLINK-5338,PAYLOAD,2024-06-27 04:41:47,14.98329433,0.000292,69.9996,149.0042,268.9217,91.1607,-6.0022e-06,-1.65e-06,0.0,0 STARLINK-5338,1 55286U 23010T   24179.19568892 -.00000165  00000-0 -60022-5 0  9992,2 55286  69.9996 149.0042 0002920 268.9217  91.1607 14.98329433 80013,6950.195,96.107,574.089,570.03,0.0
55286.0,STARLINK-5338,PAYLOAD,2024-06-27 22:19:16,14.98329002,0.0002901,69.9997,147.1528,268.9851,91.0975,2.2826e-05,1.79e-06,0.0,0 STARLINK-5338,1 55286U 23010T   24179.93004824  .00000179  00000-0  22826-4 0  9996,2 55286  69.9997 147.1528 0002901 268.9851  91.0975 14.98329002 80430,6950.196,96.107,574.077,570.045,0.0
55286.0,STARLINK-5338,PAYLOAD,2024-06-28 04:43:48,14.9833084,0.0002917,69.9996,146.4801,269.6373,90.4452,4.2669e-05,4.16e-06,0.0,0 STARLINK-5338,1 55286U 23010T   24180.19708671  .00000416  00000-0  42669-4 0  9998,2 55286  69.9996 146.4801 0002917 269.6373  90.4452 14.98330840 80164,6950.19,96.107,574.083,570.028,0.0
55286.0,STARLINK-5338,PAYLOAD,2024-06-28 07:56:04,14.9833294,0.000287,69.9997,146.1434,269.2263,90.8567,6.7063e-05,7.07e-06,0.0,0 STARLINK-5338,1 55286U 23010T   24180.33060457  .00000707  00000-0  67063-4 0  9995,2 55286  69.9997 146.1434 0002870 269.2263  90.8567 14.98332940 80496,6950.184,96.107,574.044,570.054,0.0
55286.0,STARLINK-5338,PAYLOAD,2024-06-28 22:21:16,14.98333657,0.0002794,69.9999,144.6292,266.914,93.1699,4.9754e-05,5.01e-06,0.0,0 STARLINK-5338,1 55286U 23010T   24180.93144337  .00000501  00000-0  49754-4 0  9990,2 55286  69.9999 144.6292 0002794 266.9140  93.1699 14.98333657 80584,6950.182,96.107,573.988,570.105,0.0
55286.0,STARLINK-5338,PAYLOAD,2024-06-29 04:45:48,14.98337255,0.0002737,70.0,143.9561,266.375,93.7096,9.126e-05,9.96e-06,0.0,0 STARLINK-5338,1 55286U 23010T   24181.19847914  .00000996  00000-0  91260-4 0  9997,2 55286  70.0000 143.9561 0002737 266.3750  93.7096 14.98337255 80315,6950.17,96.107,573.938,570.133,0.0
55286.0,STARLINK-5338,PAYLOAD,2024-06-29 14:22:38,14.98322022,0.000282,69.9999,142.9455,269.6755,90.4081,-0.0001033,-1.325e-05,0.0,0 STARLINK-5338,1 55286U 23010T   24181.59905277 -.00001325  00000-0 -10330-3 0  9995,2 55286  69.9999 142.9455 0002820 269.6755  90.4081 14.98322022 80688,6950.218,96.108,574.043,570.123,0.0
55286.0,STARLINK-5338,PAYLOAD,2024-06-29 22:23:18,14.98321666,0.0002717,69.9998,142.1041,269.4985,90.5863,-0.00011634,-1.48e-05,0.0,0 STARLINK-5338,1 55286U 23010T   24181.93285511 -.00001480  00000-0 -11634-3 0  9995,2 55286  69.9998 142.1041 0002717 269.4985  90.5863 14.98321666 80736,6950.219,96.108,573.972,570.195,0.0
55286.0,STARLINK-5338,PAYLOAD,2024-06-30 14:24:39,14.98326821,0.0002893,70.0,140.421,268.9229,91.1598,-6.1221e-05,-8.23e-06,0.0,0 STARLINK-5338,1 55286U 23010T   24182.60045313 -.00000823  00000-0 -61221-4 0  9992,2 55286  70.0000 140.4210 0002893 268.9229  91.1598 14.98326821 80833,6950.203,96.107,574.078,570.057,0.0
55286.0,STARLINK-5338,PAYLOAD,2024-06-30 22:25:18,14.98337639,0.0003014,69.9995,139.5791,266.6917,93.3897,-1.3925e-05,-2.59e-06,0.0,0 STARLINK-5338,1 55286U 23010T   24182.93424487 -.00000259  00000-0 -13925-4 0  9992,2 55286  69.9995 139.5791 0003014 266.6917  93.3897 14.98337639 80881,6950.169,96.107,574.129,569.939,0.0
55286.0,STARLINK-5338,PAYLOAD,2024-07-01 04:49:50,14.98338927,0.0002957,69.9997,138.9058,265.4036,94.6785,2.2776e-05,1.79e-06,0.0,0 STARLINK-5338,1 55286U 23010T   24183.20128195  .00000179  00000-0  22776-4 0  9993,2 55286  69.9997 138.9058 0002957 265.4036  94.6785 14.98338927 80618,6950.165,96.106,574.085,569.975,0.0
